start=new Date('2023-03-31T00:00:00.000Z').valueOf();
sats=[{"MEAN_ELEMENT_THEORY":"SGP4","INCLINATION":"70.0012","SITE":"AFWTR","ECCENTRICITY":"0.00034350","RCS_SIZE":"LARGE","MEAN_MOTION_DOT":"-0.00922167","BSTAR":"-0.01336200000000","TLE_LINE1":"1 55763U 23028Y   23089.91667824 -.00922167  00000-0 -13362-1 0  9991","ELEMENT_SET_NO":"999","REV_AT_EPOCH":"493","ARG_OF_PERICENTER":"266.9362","PERIAPSIS":"390.358","MEAN_ANOMALY":"81.1534","PERIOD":"92.411","CLASSIFICATION_TYPE":"U","FILE":"3875528","DECAY_DATE":null,"EPOCH":"2023-03-30T22:00:00.999936","COUNTRY_CODE":"US","REF_FRAME":"TEME","EPHEMERIS_TYPE":"0","TLE_LINE2":"2 55763  70.0012  78.9940 0003435 266.9362  81.1534 15.58263804  4934","CENTER_NAME":"EARTH","OBJECT_NAME":"STARLINK-5593","TIME_SYSTEM":"UTC","OBJECT_ID":"2023-028Y","SEMIMAJOR_AXIS":"6770.819","APOAPSIS":"395.009","NORAD_CAT_ID":"55763","LAUNCH_DATE":"2023-03-03","MEAN_MOTION_DDOT":"0.0000000000000","GP_ID":"229157236","OBJECT_TYPE":"PAYLOAD","RA_OF_ASC_NODE":"78.9940","MEAN_MOTION":"15.58263804"},{"PERIAPSIS":"356.990","MEAN_ANOMALY":"95.9222","BSTAR":"0.00011410000000","REV_AT_EPOCH":"486","ARG_OF_PERICENTER":"264.1618","ELEMENT_SET_NO":"999","TLE_LINE1":"1 55764U 23028Z   23089.44996243  .00013533  00000-0  11410-3 0  9990","ECCENTRICITY":"0.00031220","MEAN_MOTION_DOT":"0.00013533","RCS_SIZE":"LARGE","MEAN_ELEMENT_THEORY":"SGP4","SITE":"AFWTR","INCLINATION":"70.0003","GP_ID":"229187484","MEAN_MOTION_DDOT":"0.0000000000000","RA_OF_ASC_NODE":"80.1567","MEAN_MOTION":"15.69932062","OBJECT_TYPE":"PAYLOAD","LAUNCH_DATE":"2023-03-03","APOAPSIS":"361.197","NORAD_CAT_ID":"55764","SEMIMAJOR_AXIS":"6737.228","CENTER_NAME":"EARTH","OBJECT_ID":"2023-028Z","TIME_SYSTEM":"UTC","OBJECT_NAME":"STARLINK-5499","EPOCH":"2023-03-30T10:47:56.753952","DECAY_DATE":null,"FILE":"3875726","PERIOD":"91.724","CLASSIFICATION_TYPE":"U","TLE_LINE2":"2 55764  70.0003  80.1567 0003122 264.1618  95.9222 15.69932062  4862","EPHEMERIS_TYPE":"0","REF_FRAME":"TEME","COUNTRY_CODE":"US"},{"MEAN_MOTION_DDOT":"0.0000000000000","GP_ID":"229150376","MEAN_MOTION":"15.69916325","RA_OF_ASC_NODE":"80.1572","OBJECT_TYPE":"PAYLOAD","LAUNCH_DATE":"2023-03-03","SEMIMAJOR_AXIS":"6737.273","APOAPSIS":"361.154","NORAD_CAT_ID":"55765","CENTER_NAME":"EARTH","OBJECT_ID":"2023-028AA","OBJECT_NAME":"STARLINK-5595","TIME_SYSTEM":"UTC","DECAY_DATE":null,"EPOCH":"2023-03-30T10:48:06.202656","PERIOD":"91.725","CLASSIFICATION_TYPE":"U","FILE":"3875153","EPHEMERIS_TYPE":"0","TLE_LINE2":"2 55765  70.0005  80.1572 0002991 272.7098  87.3755 15.69916325  4850","COUNTRY_CODE":"US","REF_FRAME":"TEME","PERIAPSIS":"357.123","MEAN_ANOMALY":"87.3755","BSTAR":"-0.00001885600000","ELEMENT_SET_NO":"999","ARG_OF_PERICENTER":"272.7098","REV_AT_EPOCH":"485","TLE_LINE1":"1 55765U 23028AA  23089.45007179 -.00002478  00000-0 -18856-4 0  9993","ECCENTRICITY":"0.00029910","MEAN_MOTION_DOT":"-0.00002478","RCS_SIZE":"LARGE","MEAN_ELEMENT_THEORY":"SGP4","SITE":"AFWTR","INCLINATION":"70.0005"},{"LAUNCH_DATE":"2023-03-03","APOAPSIS":"361.010","NORAD_CAT_ID":"55766","SEMIMAJOR_AXIS":"6737.274","GP_ID":"229150381","MEAN_MOTION_DDOT":"0.0000000000000","RA_OF_ASC_NODE":"80.1536","MEAN_MOTION":"15.69916225","OBJECT_TYPE":"PAYLOAD","EPOCH":"2023-03-30T10:47:11.624640","DECAY_DATE":null,"FILE":"3875153","PERIOD":"91.725","CLASSIFICATION_TYPE":"U","TLE_LINE2":"2 55766  70.0015  80.1536 0002778 266.4747  93.6131 15.69916225  4853","EPHEMERIS_TYPE":"0","REF_FRAME":"TEME","COUNTRY_CODE":"US","CENTER_NAME":"EARTH","OBJECT_ID":"2023-028AB","TIME_SYSTEM":"UTC","OBJECT_NAME":"STARLINK-5599","BSTAR":"0.00000467280000","ARG_OF_PERICENTER":"266.4747","REV_AT_EPOCH":"485","ELEMENT_SET_NO":"999","TLE_LINE1":"1 55766U 23028AB  23089.44944010  .00000349  00000-0  46728-5 0  9990","PERIAPSIS":"357.267","MEAN_ANOMALY":"93.6131","MEAN_ELEMENT_THEORY":"SGP4","SITE":"AFWTR","INCLINATION":"70.0015","ECCENTRICITY":"0.00027780","MEAN_MOTION_DOT":"0.00000349","RCS_SIZE":"LARGE"},{"EPHEMERIS_TYPE":"0","TLE_LINE2":"2 55767  70.0018  80.1581 0002972 251.3406 108.7468 15.69957658  4854","COUNTRY_CODE":"US","REF_FRAME":"TEME","DECAY_DATE":null,"EPOCH":"2023-03-30T10:48:13.147488","PERIOD":"91.722","CLASSIFICATION_TYPE":"U","FILE":"3875153","OBJECT_ID":"2023-028AC","OBJECT_NAME":"STARLINK-5606","TIME_SYSTEM":"UTC","CENTER_NAME":"EARTH","LAUNCH_DATE":"2023-03-03","SEMIMAJOR_AXIS":"6737.155","APOAPSIS":"361.022","NORAD_CAT_ID":"55767","RA_OF_ASC_NODE":"80.1581","MEAN_MOTION":"15.69957658","OBJECT_TYPE":"PAYLOAD","MEAN_MOTION_DDOT":"0.0000000000000","GP_ID":"229150384","SITE":"AFWTR","INCLINATION":"70.0018","MEAN_ELEMENT_THEORY":"SGP4","MEAN_MOTION_DOT":"0.00007994","RCS_SIZE":"LARGE","ECCENTRICITY":"0.00029720","ELEMENT_SET_NO":"999","REV_AT_EPOCH":"485","ARG_OF_PERICENTER":"251.3406","TLE_LINE1":"1 55767U 23028AC  23089.45015217  .00007994  00000-0  68095-4 0  9993","BSTAR":"0.00006809500000","MEAN_ANOMALY":"108.7468","PERIAPSIS":"357.018"},{"RA_OF_ASC_NODE":"80.1549","MEAN_MOTION":"15.69915785","OBJECT_TYPE":"PAYLOAD","MEAN_MOTION_DDOT":"0.0000000000000","GP_ID":"229150396","LAUNCH_DATE":"2023-03-03","SEMIMAJOR_AXIS":"6737.275","APOAPSIS":"361.202","NORAD_CAT_ID":"55768","OBJECT_ID":"2023-028AD","OBJECT_NAME":"STARLINK-5583","TIME_SYSTEM":"UTC","CENTER_NAME":"EARTH","EPHEMERIS_TYPE":"0","TLE_LINE2":"2 55768  70.0017  80.1549 0003061 264.2408  95.8438 15.69915785  4851","COUNTRY_CODE":"US","REF_FRAME":"TEME","DECAY_DATE":null,"EPOCH":"2023-03-30T10:47:38.901120","CLASSIFICATION_TYPE":"U","PERIOD":"91.725","FILE":"3875154","MEAN_ANOMALY":"95.8438","PERIAPSIS":"357.078","ELEMENT_SET_NO":"999","REV_AT_EPOCH":"485","ARG_OF_PERICENTER":"264.2408","TLE_LINE1":"1 55768U 23028AD  23089.44975580 -.00001583  00000-0 -11409-4 0  9998","BSTAR":"-0.00001140900000","MEAN_MOTION_DOT":"-0.00001583","RCS_SIZE":"LARGE","ECCENTRICITY":"0.00030610","SITE":"AFWTR","INCLINATION":"70.0017","MEAN_ELEMENT_THEORY":"SGP4"},{"MEAN_ELEMENT_THEORY":"SGP4","SITE":"AFWTR","INCLINATION":"69.9997","ECCENTRICITY":"0.00030200","MEAN_MOTION_DOT":"-0.00007429","RCS_SIZE":"LARGE","BSTAR":"-0.00006006200000","REV_AT_EPOCH":"485","ARG_OF_PERICENTER":"255.1430","ELEMENT_SET_NO":"999","TLE_LINE1":"1 55769U 23028AE  23089.44964108 -.00007429  00000-0 -60062-4 0  9997","PERIAPSIS":"357.066","MEAN_ANOMALY":"104.9432","EPOCH":"2023-03-30T10:47:28.989312","DECAY_DATE":null,"FILE":"3875154","CLASSIFICATION_TYPE":"U","PERIOD":"91.724","TLE_LINE2":"2 55769  69.9997  80.1549 0003020 255.1430 104.9432 15.69929486  4854","EPHEMERIS_TYPE":"0","REF_FRAME":"TEME","COUNTRY_CODE":"US","CENTER_NAME":"EARTH","OBJECT_ID":"2023-028AE","TIME_SYSTEM":"UTC","OBJECT_NAME":"STARLINK-5584","LAUNCH_DATE":"2023-03-03","NORAD_CAT_ID":"55769","APOAPSIS":"361.135","SEMIMAJOR_AXIS":"6737.236","GP_ID":"229150399","MEAN_MOTION_DDOT":"0.0000000000000","MEAN_MOTION":"15.69929486","RA_OF_ASC_NODE":"80.1549","OBJECT_TYPE":"PAYLOAD"},{"SEMIMAJOR_AXIS":"6737.266","NORAD_CAT_ID":"55770","APOAPSIS":"360.980","LAUNCH_DATE":"2023-03-03","MEAN_MOTION_DDOT":"0.0000000000000","GP_ID":"229152965","OBJECT_TYPE":"PAYLOAD","RA_OF_ASC_NODE":"80.1549","MEAN_MOTION":"15.69919064","PERIOD":"91.724","CLASSIFICATION_TYPE":"U","FILE":"3875263","DECAY_DATE":null,"EPOCH":"2023-03-30T10:47:20.625792","REF_FRAME":"TEME","COUNTRY_CODE":"US","EPHEMERIS_TYPE":"0","TLE_LINE2":"2 55770  70.0028  80.1549 0002745 264.3707  95.7176 15.69919064  4859","CENTER_NAME":"EARTH","OBJECT_NAME":"STARLINK-5557","TIME_SYSTEM":"UTC","OBJECT_ID":"2023-028AF","BSTAR":"0.00000468090000","TLE_LINE1":"1 55770U 23028AF  23089.44954428  .00000350  00000-0  46809-5 0  9991","ELEMENT_SET_NO":"999","ARG_OF_PERICENTER":"264.3707","REV_AT_EPOCH":"485","PERIAPSIS":"357.281","MEAN_ANOMALY":"95.7176","MEAN_ELEMENT_THEORY":"SGP4","INCLINATION":"70.0028","SITE":"AFWTR","ECCENTRICITY":"0.00027450","RCS_SIZE":"LARGE","MEAN_MOTION_DOT":"0.00000350"},{"MEAN_MOTION_DDOT":"0.0000000000000","GP_ID":"229150428","OBJECT_TYPE":"PAYLOAD","MEAN_MOTION":"15.69922279","RA_OF_ASC_NODE":"80.1543","SEMIMAJOR_AXIS":"6737.256","NORAD_CAT_ID":"55771","APOAPSIS":"360.796","LAUNCH_DATE":"2023-03-03","CENTER_NAME":"EARTH","OBJECT_NAME":"STARLINK-5591","TIME_SYSTEM":"UTC","OBJECT_ID":"2023-028AG","CLASSIFICATION_TYPE":"U","PERIOD":"91.724","FILE":"3875155","DECAY_DATE":null,"EPOCH":"2023-03-30T10:46:53.738976","COUNTRY_CODE":"US","REF_FRAME":"TEME","EPHEMERIS_TYPE":"0","TLE_LINE2":"2 55771  70.0005  80.1543 0002485 245.1022 114.9916 15.69922279  4855","PERIAPSIS":"357.447","MEAN_ANOMALY":"114.9916","BSTAR":"-0.00008488700000","TLE_LINE1":"1 55771U 23028AG  23089.44923309 -.00010404  00000-0 -84887-4 0  9996","ELEMENT_SET_NO":"999","REV_AT_EPOCH":"485","ARG_OF_PERICENTER":"245.1022","ECCENTRICITY":"0.00024850","RCS_SIZE":"LARGE","MEAN_MOTION_DOT":"-0.00010404","MEAN_ELEMENT_THEORY":"SGP4","INCLINATION":"70.0005","SITE":"AFWTR"},{"TLE_LINE1":"1 55772U 23028AH  23089.44880766 -.00001607  00000-0 -11604-4 0  9998","ELEMENT_SET_NO":"999","ARG_OF_PERICENTER":"260.1598","REV_AT_EPOCH":"486","BSTAR":"-0.00001160400000","MEAN_ANOMALY":"99.9297","PERIAPSIS":"357.342","INCLINATION":"70.0022","SITE":"AFWTR","MEAN_ELEMENT_THEORY":"SGP4","RCS_SIZE":"LARGE","MEAN_MOTION_DOT":"-0.00001607","ECCENTRICITY":"0.00026650","SEMIMAJOR_AXIS":"6737.273","APOAPSIS":"360.933","NORAD_CAT_ID":"55772","LAUNCH_DATE":"2023-03-03","OBJECT_TYPE":"PAYLOAD","RA_OF_ASC_NODE":"80.1519","MEAN_MOTION":"15.69916500","MEAN_MOTION_DDOT":"0.0000000000000","GP_ID":"229150665","REF_FRAME":"TEME","COUNTRY_CODE":"US","EPHEMERIS_TYPE":"0","TLE_LINE2":"2 55772  70.0022  80.1519 0002665 260.1598  99.9297 15.69916500  4868","PERIOD":"91.725","CLASSIFICATION_TYPE":"U","FILE":"3875155","DECAY_DATE":null,"EPOCH":"2023-03-30T10:46:16.981824","OBJECT_NAME":"STARLINK-5835","TIME_SYSTEM":"UTC","OBJECT_ID":"2023-028AH","CENTER_NAME":"EARTH"}];
